[
    {
        "Altitude(m)": 554778.5707005749,
        "Argument of Periapsis(deg)": 0.006622991110713501,
        "Eccentricity": 0.0,
        "Inclination(deg)": 53.0,
        "Latitude(deg)": -3.651062174569827,
        "Longitude(deg)": -103.5138598421678,
        "Mean Anomaly(deg)": 355.54619286757753,
        "RAAN(deg)": -0.009856631471983178,
        "Satellite Name": "Starlink Shell 1 21",
        "Satellite Number": 21,
        "Semi-Major Axis(m)": 6931778.249405717,
        "Time(s)": 190
    },
    {
        "Altitude(m)": 554694.5657467846,
        "Argument of Periapsis(deg)": 0.0069715695902247375,
        "Eccentricity": 0.0,
        "Inclination(deg)": 53.0,
        "Latitude(deg)": -3.147708064414251,
        "Longitude(deg)": -103.17722127137893,
        "Mean Anomaly(deg)": 356.17302407113425,
        "RAAN(deg)": -0.010375401549455977,
        "Satellite Name": "Starlink Shell 1 21",
        "Satellite Number": 21,
        "Semi-Major Axis(m)": 6931778.249405717,
        "Time(s)": 200
    },
    {
        "Altitude(m)": 554613.2823418033,
        "Argument of Periapsis(deg)": 0.007320148069735974,
        "Eccentricity": 0.0,
        "Inclination(deg)": 53.0,
        "Latitude(deg)": -2.6442009480176396,
        "Longitude(deg)": -102.84093679678102,
        "Mean Anomaly(deg)": 356.79985527469097,
        "RAAN(deg)": -0.010894171626928776,
        "Satellite Name": "Starlink Shell 1 21",
        "Satellite Number": 21,
        "Semi-Major Axis(m)": 6931778.249405717,
        "Time(s)": 210
    },
    {
        "Altitude(m)": 554534.7362264592,
        "Argument of Periapsis(deg)": 0.007668726549247212,
        "Eccentricity": 0.0,
        "Inclination(deg)": 53.0,
        "Latitude(deg)": -2.140563889874336,
        "Longitude(deg)": -102.50494851027128,
        "Mean Anomaly(deg)": 357.4266864782477,
        "RAAN(deg)": -0.011412941704401575,
        "Satellite Name": "Starlink Shell 1 21",
        "Satellite Number": 21,
        "Semi-Major Axis(m)": 6931778.249405717,
        "Time(s)": 220
    },
    {
        "Altitude(m)": 554458.9418021475,
        "Argument of Periapsis(deg)": 0.00801730502875845,
        "Eccentricity": 0.0,
        "Inclination(deg)": 53.0,
        "Latitude(deg)": -1.6368198967450833,
        "Longitude(deg)": -102.16919863056391,
        "Mean Anomaly(deg)": 358.0535176818044,
        "RAAN(deg)": -0.011931711781874374,
        "Satellite Name": "Starlink Shell 1 21",
        "Satellite Number": 21,
        "Semi-Major Axis(m)": 6931778.249405717,
        "Time(s)": 230
    },
    {
        "Altitude(m)": 554385.9121263936,
        "Argument of Periapsis(deg)": 0.008365883508269684,
        "Eccentricity": 0.0,
        "Inclination(deg)": 53.0,
        "Latitude(deg)": -1.1329919294497153,
        "Longitude(deg)": -101.83362897361472,
        "Mean Anomaly(deg)": 358.6803488853611,
        "RAAN(deg)": -0.012450481859347171,
        "Satellite Name": "Starlink Shell 1 21",
        "Satellite Number": 21,
        "Semi-Major Axis(m)": 6931778.249405717,
        "Time(s)": 240
    },
    {
        "Altitude(m)": 554315.6589091097,
        "Argument of Periapsis(deg)": 0.008714461987780921,
        "Eccentricity": 0.0,
        "Inclination(deg)": 53.0,
        "Latitude(deg)": -0.6291029146136532,
        "Longitude(deg)": -101.4981819359459,
        "Mean Anomaly(deg)": 359.3071800889179,
        "RAAN(deg)": -0.012969251936819972,
        "Satellite Name": "Starlink Shell 1 21",
        "Satellite Number": 21,
        "Semi-Major Axis(m)": 6931778.249405717,
        "Time(s)": 250
    },
    {
        "Altitude(m)": 554248.1925094812,
        "Argument of Periapsis(deg)": 0.009063040467292158,
        "Eccentricity": 0.0,
        "Inclination(deg)": 53.0,
        "Latitude(deg)": -0.1251757563807353,
        "Longitude(deg)": -101.16279996511643,
        "Mean Anomaly(deg)": 359.93401129247457,
        "RAAN(deg)": -0.013488022014292769,
        "Satellite Name": "Starlink Shell 1 21",
        "Satellite Number": 21,
        "Semi-Major Axis(m)": 6931778.249405717,
        "Time(s)": 260
    },
    {
        "Altitude(m)": 554183.5219335706,
        "Argument of Periapsis(deg)": 0.009411618946803396,
        "Eccentricity": 0.0,
        "Inclination(deg)": 53.0,
        "Latitude(deg)": 0.3787666518962256,
        "Longitude(deg)": -100.82742503020512,
        "Mean Anomaly(deg)": 0.560842496031271,
        "RAAN(deg)": -0.014006792091765568,
        "Satellite Name": "Starlink Shell 1 21",
        "Satellite Number": 21,
        "Semi-Major Axis(m)": 6931778.249405717,
        "Time(s)": 270
    },
    {
        "Altitude(m)": 554121.6548325745,
        "Argument of Periapsis(deg)": 0.009760197426314633,
        "Eccentricity": 0.0,
        "Inclination(deg)": 53.0,
        "Latitude(deg)": 0.8827014159781107,
        "Longitude(deg)": -100.49199960517043,
        "Mean Anomaly(deg)": 1.1876736995879804,
        "RAAN(deg)": -0.014525562169238369,
        "Satellite Name": "Starlink Shell 1 21",
        "Satellite Number": 21,
        "Semi-Major Axis(m)": 6931778.249405717,
        "Time(s)": 280
    },
    {
        "Altitude(m)": 554062.5975017626,
        "Argument of Periapsis(deg)": 0.01010877590582587,
        "Eccentricity": 0.0,
        "Inclination(deg)": 53.0,
        "Latitude(deg)": 1.386605629061512,
        "Longitude(deg)": -100.15646613933426,
        "Mean Anomaly(deg)": 1.8145049031447409,
        "RAAN(deg)": -0.015044332246711162,
        "Satellite Name": "Starlink Shell 1 21",
        "Satellite Number": 21,
        "Semi-Major Axis(m)": 6931778.249405717,
        "Time(s)": 290
    },
    {
        "Altitude(m)": 554006.3548801256,
        "Argument of Periapsis(deg)": 0.010457354385337106,
        "Eccentricity": 0.0,
        "Inclination(deg)": 53.0,
        "Latitude(deg)": 1.890456360089761,
        "Longitude(deg)": -99.82076652785445,
        "Mean Anomaly(deg)": 2.4413361067013994,
        "RAAN(deg)": -0.015563102324183963,
        "Satellite Name": "Starlink Shell 1 21",
        "Satellite Number": 21,
        "Semi-Major Axis(m)": 6931778.249405717,
        "Time(s)": 300
    },
    {
        "Altitude(m)": 553952.9305506315,
        "Argument of Periapsis(deg)": 0.010805932864848343,
        "Eccentricity": 0.0,
        "Inclination(deg)": 53.0,
        "Latitude(deg)": 2.3942306420434063,
        "Longitude(deg)": -99.4848430950515,
        "Mean Anomaly(deg)": 3.068167310258109,
        "RAAN(deg)": -0.016081872401656764,
        "Satellite Name": "Starlink Shell 1 21",
        "Satellite Number": 21,
        "Semi-Major Axis(m)": 6931778.249405717,
        "Time(s)": 310
    },
    {
        "Altitude(m)": 553902.3267412498,
        "Argument of Periapsis(deg)": 0.01115451134435958,
        "Eccentricity": 0.0,
        "Inclination(deg)": 53.0,
        "Latitude(deg)": 2.8979054601957763,
        "Longitude(deg)": -99.14863806483646,
        "Mean Anomaly(deg)": 3.6949985138148693,
        "RAAN(deg)": -0.01660064247912956,
        "Satellite Name": "Starlink Shell 1 21",
        "Satellite Number": 21,
        "Semi-Major Axis(m)": 6931778.249405717,
        "Time(s)": 320
    },
    {
        "Altitude(m)": 553854.5443265737,
        "Argument of Periapsis(deg)": 0.011503089823870818,
        "Eccentricity": 0.0,
        "Inclination(deg)": 53.0,
        "Latitude(deg)": 3.4014577403244286,
        "Longitude(deg)": -98.8120930311049,
        "Mean Anomaly(deg)": 4.321829717371579,
        "RAAN(deg)": -0.01711941255660236,
        "Satellite Name": "Starlink Shell 1 21",
        "Satellite Number": 21,
        "Semi-Major Axis(m)": 6931778.249405717,
        "Time(s)": 330
    },
    {
        "Altitude(m)": 553809.5828301801,
        "Argument of Periapsis(deg)": 0.011851668303382053,
        "Eccentricity": 0.0,
        "Inclination(deg)": 53.0,
        "Latitude(deg)": 3.904864336867597,
        "Longitude(deg)": -98.4751499409628,
        "Mean Anomaly(deg)": 4.948660920928288,
        "RAAN(deg)": -0.01763818263407516,
        "Satellite Name": "Starlink Shell 1 21",
        "Satellite Number": 21,
        "Semi-Major Axis(m)": 6931778.249405717,
        "Time(s)": 340
    },
    {
        "Altitude(m)": 553767.4404276097,
        "Argument of Periapsis(deg)": 0.012200246782893292,
        "Eccentricity": 0.0,
        "Inclination(deg)": 53.0,
        "Latitude(deg)": 4.408102021012296,
        "Longitude(deg)": -98.13775056503154,
        "Mean Anomaly(deg)": 5.575492124484998,
        "RAAN(deg)": -0.018156952711547956,
        "Satellite Name": "Starlink Shell 1 21",
        "Satellite Number": 21,
        "Semi-Major Axis(m)": 6931778.249405717,
        "Time(s)": 350
    },
    {
        "Altitude(m)": 553728.1139500779,
        "Argument of Periapsis(deg)": 0.012548825262404526,
        "Eccentricity": 0.0,
        "Inclination(deg)": 53.0,
        "Latitude(deg)": 4.911147468703996,
        "Longitude(deg)": -97.79983596769846,
        "Mean Anomaly(deg)": 6.202323328041707,
        "RAAN(deg)": -0.01867572278902076,
        "Satellite Name": "Starlink Shell 1 21",
        "Satellite Number": 21,
        "Semi-Major Axis(m)": 6931778.249405717,
        "Time(s)": 360
    },
    {
        "Altitude(m)": 553691.5988888005,
        "Argument of Periapsis(deg)": 0.012897403741915765,
        "Eccentricity": 0.0,
        "Inclination(deg)": 53.0,
        "Latitude(deg)": 5.413977248566929,
        "Longitude(deg)": -97.46134749017884,
        "Mean Anomaly(deg)": 6.829154531598417,
        "RAAN(deg)": -0.019194492866493558,
        "Satellite Name": "Starlink Shell 1 21",
        "Satellite Number": 21,
        "Semi-Major Axis(m)": 6931778.249405717,
        "Time(s)": 370
    }
]